LEMUR-1                 
1 40044U 14033AL  26062.84297860  .00003831  00000+0  44816-3 0  9993
2 40044  97.7702 215.1128 0049802  64.6774 295.9588 14.84762726629834
LEMUR-2-GREENBERG       
1 42837U 17042N   26063.02601664  .00025555  00000+0  94309-3 0  9999
2 42837  97.3764 244.4208 0009441  23.3828 336.7839 15.27711903472312
LEMUR-2-ANDIS           
1 42838U 17042P   26063.00171557  .00032809  00000+0  11193-2 0  9990
2 42838  97.3647 244.2817 0009398  23.4514 336.7154 15.30233259472341
LEMUR-2-MONSON          
1 42839U 17042Q   26063.01538904  .00022618  00000+0  91337-3 0  9991
2 42839  97.4019 244.5189 0006915  12.6606 347.4804 15.24758017472129
LEMUR-2-FURIAUS         
1 42840U 17042R   26063.06022436  .00035028  00000+0  13628-2 0  9991
2 42840  97.3736 242.6766 0007569  77.2135 282.9949 15.25906313472157
LEMUR-2-PETERG          
1 42841U 17042S   26063.05212978  .00029591  00000+0  10397-2 0  9991
2 42841  97.3965 248.2571 0003910   1.3705 358.7546 15.29328079472342
LEMUR-2-DEMBITZ         
1 42842U 17042T   26063.03526773  .00027800  00000+0  10582-2 0  9998
2 42842  97.3796 245.5469 0007222  36.0746 324.0979 15.26686759472289
LEMUR-2-ZACHARY         
1 42845U 17042W   26063.07064905  .00064949  00000+0  15419-2 0  9998
2 42845  97.3649 253.1127 0003713  37.6372 322.5134 15.41464650472960
LEMUR-2-JIN-LUEN        
1 43182U 18014C   26062.76427398  .00246083  00000+0  15420-2 0  9990
2 43182  97.5453 352.5018 0001795 110.9160 249.2297 15.76091353444532
LEMUR-2-KADI            
1 43184U 18014E   26062.78071829  .00113858  00000+0  12509-2 0  9996
2 43184  97.4721 347.1131 0000983  51.5673 308.5673 15.62818157444467
LEMUR-2-AMANDA-SVANTE   
1 48269U 21034B   26063.14546451  .00041886  00000+0  15261-2 0  9999
2 48269  97.5844 139.1301 0002149 223.0413 137.0658 15.28065004264987
LEMUR-2-SPECIAL-K       
1 48273U 21034F   26063.14604311  .00094013  00000+0  20138-2 0  9993
2 48273  97.5728 144.2220 0001602 220.5024 139.6105 15.44420559265381
LEMUR-2-EMBRIONOVIS     
1 56970U 23084AQ  26062.80252949  .00011089  00000+0  33363-3 0  9998
2 56970  97.6119 203.2954 0008606 335.5796  24.5037 15.34518682151501
LEMUR-2-MANO            
1 57390U 23100E   26062.60656164  .00155538  00000+0  19742-2 0  9991
2 57390  99.4553  83.1322 0002403  57.0460 303.1020 15.58879848145531
LEMUR-2-DEVERILL-M-T    
1 57391U 23100F   26062.52100796  .00033983  00000+0  10212-2 0  9990
2 57391  99.4572  71.2312 0008700  46.5642 313.6316 15.34317768145010
LEMUR-2-BASS            
1 58259U 23174D   26063.17060151  .00026335  00000+0  67050-3 0  9993
2 58259  97.3894 146.6833 0007965 181.0527 179.0703 15.39521130129181
