[{"OBJECT_NAME":"LEMUR-1","OBJECT_ID":"2014-033AL","EPOCH":"2026-03-03T20:13:53.351040","MEAN_MOTION":14.84762726,"ECCENTRICITY":0.0049802,"INCLINATION":97.7702,"RA_OF_ASC_NODE":215.1128,"ARG_OF_PERICENTER":64.6774,"MEAN_ANOMALY":295.9588,"EPHEMERIS_TYPE":0,"CLASSIFICATION_TYPE":"U","NORAD_CAT_ID":40044,"ELEMENT_SET_NO":999,"REV_AT_EPOCH":62983,"BSTAR":0.00044816,"MEAN_MOTION_DOT":3.831e-5,"MEAN_MOTION_DDOT":0},{"OBJECT_NAME":"LEMUR-2-GREENBERG","OBJECT_ID":"2017-042N","EPOCH":"2026-03-04T00:37:27.837696","MEAN_MOTION":15.27711903,"ECCENTRICITY":0.0009441,"INCLINATION":97.3764,"RA_OF_ASC_NODE":244.4208,"ARG_OF_PERICENTER":23.3828,"MEAN_ANOMALY":336.7839,"EPHEMERIS_TYPE":0,"CLASSIFICATION_TYPE":"U","NORAD_CAT_ID":42837,"ELEMENT_SET_NO":999,"REV_AT_EPOCH":47231,"BSTAR":0.00094309,"MEAN_MOTION_DOT":0.00025555,"MEAN_MOTION_DDOT":0},{"OBJECT_NAME":"LEMUR-2-ANDIS","OBJECT_ID":"2017-042P","EPOCH":"2026-03-04T00:02:28.225248","MEAN_MOTION":15.30233259,"ECCENTRICITY":0.0009398,"INCLINATION":97.3647,"RA_OF_ASC_NODE":244.2817,"ARG_OF_PERICENTER":23.4514,"MEAN_ANOMALY":336.7154,"EPHEMERIS_TYPE":0,"CLASSIFICATION_TYPE":"U","NORAD_CAT_ID":42838,"ELEMENT_SET_NO":999,"REV_AT_EPOCH":47234,"BSTAR":0.0011193,"MEAN_MOTION_DOT":0.00032809,"MEAN_MOTION_DDOT":0},{"OBJECT_NAME":"LEMUR-2-MONSON","OBJECT_ID":"2017-042Q","EPOCH":"2026-03-04T00:22:09.613056","MEAN_MOTION":15.24758017,"ECCENTRICITY":0.0006915,"INCLINATION":97.4019,"RA_OF_ASC_NODE":244.5189,"ARG_OF_PERICENTER":12.6606,"MEAN_ANOMALY":347.4804,"EPHEMERIS_TYPE":0,"CLASSIFICATION_TYPE":"U","NORAD_CAT_ID":42839,"ELEMENT_SET_NO":999,"REV_AT_EPOCH":47212,"BSTAR":0.00091337,"MEAN_MOTION_DOT":0.00022618,"MEAN_MOTION_DDOT":0},{"OBJECT_NAME":"LEMUR-2-FURIAUS","OBJECT_ID":"2017-042R","EPOCH":"2026-03-04T01:26:43.384704","MEAN_MOTION":15.25906313,"ECCENTRICITY":0.0007569,"INCLINATION":97.3736,"RA_OF_ASC_NODE":242.6766,"ARG_OF_PERICENTER":77.2135,"MEAN_ANOMALY":282.9949,"EPHEMERIS_TYPE":0,"CLASSIFICATION_TYPE":"U","NORAD_CAT_ID":42840,"ELEMENT_SET_NO":999,"REV_AT_EPOCH":47215,"BSTAR":0.0013628,"MEAN_MOTION_DOT":0.00035028,"MEAN_MOTION_DDOT":0},{"OBJECT_NAME":"LEMUR-2-PETERG","OBJECT_ID":"2017-042S","EPOCH":"2026-03-04T01:15:04.012992","MEAN_MOTION":15.29328079,"ECCENTRICITY":0.000391,"INCLINATION":97.3965,"RA_OF_ASC_NODE":248.2571,"ARG_OF_PERICENTER":1.3705,"MEAN_ANOMALY":358.7546,"EPHEMERIS_TYPE":0,"CLASSIFICATION_TYPE":"U","NORAD_CAT_ID":42841,"ELEMENT_SET_NO":999,"REV_AT_EPOCH":47234,"BSTAR":0.0010397,"MEAN_MOTION_DOT":0.00029591,"MEAN_MOTION_DDOT":0},{"OBJECT_NAME":"LEMUR-2-DEMBITZ","OBJECT_ID":"2017-042T","EPOCH":"2026-03-04T00:50:47.131872","MEAN_MOTION":15.26686759,"ECCENTRICITY":0.0007222,"INCLINATION":97.3796,"RA_OF_ASC_NODE":245.5469,"ARG_OF_PERICENTER":36.0746,"MEAN_ANOMALY":324.0979,"EPHEMERIS_TYPE":0,"CLASSIFICATION_TYPE":"U","NORAD_CAT_ID":42842,"ELEMENT_SET_NO":999,"REV_AT_EPOCH":47228,"BSTAR":0.0010582,"MEAN_MOTION_DOT":0.000278,"MEAN_MOTION_DDOT":0},{"OBJECT_NAME":"LEMUR-2-ZACHARY","OBJECT_ID":"2017-042W","EPOCH":"2026-03-04T01:41:44.077920","MEAN_MOTION":15.4146465,"ECCENTRICITY":0.0003713,"INCLINATION":97.3649,"RA_OF_ASC_NODE":253.1127,"ARG_OF_PERICENTER":37.6372,"MEAN_ANOMALY":322.5134,"EPHEMERIS_TYPE":0,"CLASSIFICATION_TYPE":"U","NORAD_CAT_ID":42845,"ELEMENT_SET_NO":999,"REV_AT_EPOCH":47296,"BSTAR":0.0015419,"MEAN_MOTION_DOT":0.00064949,"MEAN_MOTION_DDOT":0},{"OBJECT_NAME":"LEMUR-2-JIN-LUEN","OBJECT_ID":"2018-014C","EPOCH":"2026-03-03T18:20:33.271872","MEAN_MOTION":15.76091353,"ECCENTRICITY":0.00017957,"INCLINATION":97.5453,"RA_OF_ASC_NODE":352.5018,"ARG_OF_PERICENTER":110.916,"MEAN_ANOMALY":249.2297,"EPHEMERIS_TYPE":0,"CLASSIFICATION_TYPE":"U","NORAD_CAT_ID":43182,"ELEMENT_SET_NO":999,"REV_AT_EPOCH":44453,"BSTAR":0.0015420229,"MEAN_MOTION_DOT":0.00246083,"MEAN_MOTION_DDOT":0},{"OBJECT_NAME":"LEMUR-2-KADI","OBJECT_ID":"2018-014E","EPOCH":"2026-03-03T18:44:14.060256","MEAN_MOTION":15.62818157,"ECCENTRICITY":9.83e-5,"INCLINATION":97.4721,"RA_OF_ASC_NODE":347.1131,"ARG_OF_PERICENTER":51.5673,"MEAN_ANOMALY":308.5673,"EPHEMERIS_TYPE":0,"CLASSIFICATION_TYPE":"U","NORAD_CAT_ID":43184,"ELEMENT_SET_NO":999,"REV_AT_EPOCH":44446,"BSTAR":0.0012509,"MEAN_MOTION_DOT":0.00113858,"MEAN_MOTION_DDOT":0},{"OBJECT_NAME":"LEMUR-2-AMANDA-SVANTE","OBJECT_ID":"2021-034B","EPOCH":"2026-03-04T03:29:28.133664","MEAN_MOTION":15.28065004,"ECCENTRICITY":0.0002149,"INCLINATION":97.5844,"RA_OF_ASC_NODE":139.1301,"ARG_OF_PERICENTER":223.0413,"MEAN_ANOMALY":137.0658,"EPHEMERIS_TYPE":0,"CLASSIFICATION_TYPE":"U","NORAD_CAT_ID":48269,"ELEMENT_SET_NO":999,"REV_AT_EPOCH":26498,"BSTAR":0.0015261,"MEAN_MOTION_DOT":0.00041886,"MEAN_MOTION_DDOT":0},{"OBJECT_NAME":"LEMUR-2-SPECIAL-K","OBJECT_ID":"2021-034F","EPOCH":"2026-03-04T03:30:18.124704","MEAN_MOTION":15.44420559,"ECCENTRICITY":0.0001602,"INCLINATION":97.5728,"RA_OF_ASC_NODE":144.222,"ARG_OF_PERICENTER":220.5024,"MEAN_ANOMALY":139.6105,"EPHEMERIS_TYPE":0,"CLASSIFICATION_TYPE":"U","NORAD_CAT_ID":48273,"ELEMENT_SET_NO":999,"REV_AT_EPOCH":26538,"BSTAR":0.0020138,"MEAN_MOTION_DOT":0.00094013,"MEAN_MOTION_DDOT":0},{"OBJECT_NAME":"LEMUR-2-EMBRIONOVIS","OBJECT_ID":"2023-084AQ","EPOCH":"2026-03-03T19:15:38.547936","MEAN_MOTION":15.34518682,"ECCENTRICITY":0.0008606,"INCLINATION":97.6119,"RA_OF_ASC_NODE":203.2954,"ARG_OF_PERICENTER":335.5796,"MEAN_ANOMALY":24.5037,"EPHEMERIS_TYPE":0,"CLASSIFICATION_TYPE":"U","NORAD_CAT_ID":56970,"ELEMENT_SET_NO":999,"REV_AT_EPOCH":15150,"BSTAR":0.00033363,"MEAN_MOTION_DOT":0.00011089,"MEAN_MOTION_DDOT":0},{"OBJECT_NAME":"LEMUR-2-MANO","OBJECT_ID":"2023-100E","EPOCH":"2026-03-03T14:33:26.925696","MEAN_MOTION":15.58879848,"ECCENTRICITY":0.0002403,"INCLINATION":99.4553,"RA_OF_ASC_NODE":83.1322,"ARG_OF_PERICENTER":57.046,"MEAN_ANOMALY":303.102,"EPHEMERIS_TYPE":0,"CLASSIFICATION_TYPE":"U","NORAD_CAT_ID":57390,"ELEMENT_SET_NO":999,"REV_AT_EPOCH":14553,"BSTAR":0.0019742,"MEAN_MOTION_DOT":0.00155538,"MEAN_MOTION_DDOT":0},{"OBJECT_NAME":"LEMUR-2-DEVERILL-M-T","OBJECT_ID":"2023-100F","EPOCH":"2026-03-03T12:30:15.087744","MEAN_MOTION":15.34317768,"ECCENTRICITY":0.00087,"INCLINATION":99.4572,"RA_OF_ASC_NODE":71.2312,"ARG_OF_PERICENTER":46.5642,"MEAN_ANOMALY":313.6316,"EPHEMERIS_TYPE":0,"CLASSIFICATION_TYPE":"U","NORAD_CAT_ID":57391,"ELEMENT_SET_NO":999,"REV_AT_EPOCH":14501,"BSTAR":0.0010212,"MEAN_MOTION_DOT":0.00033983,"MEAN_MOTION_DDOT":0},{"OBJECT_NAME":"LEMUR-2-BASS","OBJECT_ID":"2023-174D","EPOCH":"2026-03-04T04:05:39.970464","MEAN_MOTION":15.3952113,"ECCENTRICITY":0.0007965,"INCLINATION":97.3894,"RA_OF_ASC_NODE":146.6833,"ARG_OF_PERICENTER":181.0527,"MEAN_ANOMALY":179.0703,"EPHEMERIS_TYPE":0,"CLASSIFICATION_TYPE":"U","NORAD_CAT_ID":58259,"ELEMENT_SET_NO":999,"REV_AT_EPOCH":12918,"BSTAR":0.0006705,"MEAN_MOTION_DOT":0.00026335,"MEAN_MOTION_DDOT":0}]
